STARLINK-30403          
1 57813U 23138F   26068.53040015 -.00002566  00000+0 -85999-4 0  9995
2 57813  43.0012 235.1058 0001540 272.1014  87.9661 15.26746502138611
FLOCK 4G-18             
1 62680U 25009BZ  26068.19114186  .00011766  00000+0  44319-3 0  9995
2 62680  97.4054 150.5008 0004100 335.7331  24.3715 15.27241676121267
